,EIN,NAME,ICO,STREET,CITY,STATE,ZIP,NTEE_CD
170,10676579,UPPER UNION DISTRICT MANAGEMENT ASSOCIATION INC,% CHRIS DICOCCO,1598 UNION ST,SCHENECTADY,NY,12309-0000,S30
185,10683413,THE COUNCIL OF URBAN PROFESSIONALS INSTITUTE,% TARRUS RICHARDSON,55 EXCHANGE PL STE 405,NEW YORK,NY,10005-2036,S31
258,10735369,YONKERS SOUTH BROADWAY DISTRICT MANAGEMENT ASSOCIATION INC,% DENNIS MONASEBIAN,8 SAINT ANDREWS PL,YONKERS,NY,10705-3138,S31
481,11705312,TCA VISION 21 INC,% HUGH KEARNEY,PO BOX 57,SIDNEY,NY,13838-0057,S32
590,20586300,EMPIRE ZONE OF MONROE COUNTY INC,% GATES & ADAMS,50 W MAIN ST 8100 CITYPLACE,ROCHESTER,NY,14614-1293,S31
1429,43845400,THANKFUL COMMUNITY DEVELOPMENT CORPORATION,% TOMMIE L BABBS,197 SUMNER PL,BUFFALO,NY,14211-2519,S31
1477,50533961,DISTRICT MANAGEMENT ASSOCIATION OF THE CROUSE MARSHALL BID,% JERRY DALLAS,115 WEST FAYETTE STREET,SYRACUSE,NY,13202-0000,S30
1537,50577881,CATSKILL DEVELOPMENT FOUNDATION INC,% MARY BETH SILANO,5 1/2 MAIN ST,DELHI,NY,13753-1109,S30
1898,61401412,DOWNTOWN MIDDLETOWN DISTRICT MANAGEMENT ASSOCIATION INC,,19 SOUTH ST,MIDDLETOWN,NY,10940-5801,S31
2346,61658545,COHOES LOCAL DEVELOPMENT CORPORATION,% JOHN T MCDONALD III,97 MOHAWK STREET,COHOES,NY,12047-2961,S30
2578,100000080,GREATER ROCHESTER ENTERPRISE INC,% TRINA LANG,100 CHESTNUT ST STE 1910,ROCHESTER,NY,14604-2410,S30
2579,100000085,GREATER ROCHESTER ENTERPRISE FOUNDATION INC,,100 CHESTNUT ST STE 1910,ROCHESTER,NY,14604-2410,S31
5151,112532563,ALLEN A M E HOUSING DEVELOPMENT FUND CORPORATION,,11031 MERRICK BLVD,QUEENS,NY,11433-3440,S31
6299,112688920,NHS DEVELOPMENT CORPORATION,,89-70 162ND STRET,JAMAICA,NY,11432-0000,S30
7963,112977052,KINGS HIGHWAY DISTRICT MANAGEMENT ASSOCIATION INC,,905 KINGS HWY,BROOKLYN,NY,11223-2336,S30
8669,113059018,LONG ISLAND HIGH TECHNOLOGY INCUBATOR INC,,25 HEALTH SCIENCES DRIVE,STONY BROOK,NY,11790-0000,S30
10445,113248243,HUNTERS POINT COMMUNITY COALITION,% THOMAS PAINO,1030 46TH RD,LONG IS CITY,NY,11101-5320,S31
10448,113248819,RIVERHEAD BUSINESS IMPROVEMENT DISTRICT MANAGEMENT ASSOC INC,,4 W 2ND ST,RIVERHEAD,NY,11901-2702,S31
12067,113415840,LONG ISLAND PARTNERSHIP COMMUNITY DEVELOPMENT CORPORATION,% PETER ELKOWITZ,180 OSER AVE STE 800,HAUPPAUGE,NY,11788-3737,S31
12194,113427959,GMDC TWO INC,% GREENPOINT MANUFACTURING & DEVELO,1155 MANHATTAN AVENUE,BROOKLYN,NY,11222-6102,S31
12514,113458791,RESTORATION CAPITAL FUND INC,,1368 FULTON STREET,BROOKLYN,NY,11216-5372,S30
12571,113463646,AMOS WORLD MISSION FOUNDATION,% ROGERS & CO CPAS PC,14-14 UTOPIA PARKWAY,BEECHHURST,NY,11357-0000,S31
13497,113546930,CAMBA ECONOMIC DEVELOPMENT CORPORATION,% JOANNE OPLUSTIL,1720 CHURCH AVE,BROOKLYN,NY,11226-2630,S30
14042,113600385,DOWNSTATE TECHNOLOGY CENTER INC,,450 CLARKSON AVE BOX 65,BROOKLYN,NY,11203-2012,S30
14110,113613094,LA FUERZA UNIDA COMMUNITY DEVELOPMENT CORPORATION,% PASCUAL BLANCO,34 MUTTONTOWN LN,EAST NORWICH,NY,11732-1408,S30
14221,113623349,OYSTER BAY MAIN STREET ASSOCIATION,,PO BOX 116,OYSTER BAY,NY,11771-0116,S30
14593,113819812,CAPITAL DISTRICT BLACK CHAMBER OF COMMERCE,% RONALD QUARTIMON,90 STATE STREET 7TH FLOOR,ALBANY,NY,12207-1716,S31
14594,113820556,SAVE SAG HARBOR INC,% SETH GROSSMAN,PO BOX 775,SAG HARBOR,NY,11963-0019,S30
15665,116448577,JOHN T LAADT TRUST 101394,,PO BOX 666,REMSENBURG,NY,11960-0666,S30
16696,131786203,PELHAM-CHAMBER OF COMMERCE INC,% ROZYCKI,535 STELLAR AVE,PELHAM,NY,10803-2424,S30
17926,132875743,STRUCTURED EMPLOYMENT ECONOMIC DEVELOPMENT CORPORATION,% VICKY GATELL,311 E 175TH ST,BRONX,NY,10457-5859,S30
18311,132943228,SOBRO LOCAL DEVELOPMENT CORPORATION,% KAREN MCGUINNESS,555 BERGEN AVENUE 3RD FLOOR,BRONX,NY,10455-1368,S31
20478,133304172,INTERNATIONAL MULTIRACIAL SHARED CULTURAL ORGANIZATION,% FRANK WESTON PRESIDENT / FOUNDER,4 PARK AVENUE,NEW YORK,NY,10016-5339,S31
21387,133455415,HUB-THIRD AVE MERCHANTS DISTRICT MANAGEMENT ASSOCIATION INC,,67 SAINT NICHOLAS AVE APT 22,NEW YORK,NY,10026-2935,S30
21497,133475185,THE GREATER HUNTS POINT ECONOMIC DEVELOPMENT CORPORATION,,1231 LAFAYETTE AVE SUB BASEMENT,BRONX,NY,10474-0000,S31
22725,133641265,GROW AMERICA FUND INC,,633 THIRD AVE 19J,NEW YORK,NY,10017-0000,S31
23771,133776242,CHURCH ALIVE DEVELOPMENT CORPORATION,% TIMOTHY BIRKETT,16 MOREHOUSE RD,POUGHKEEPSIE,NY,12603-4010,S31
24307,133842270,NEW ECONOMY PROJECT,,121 W 27TH ST STE 804,NEW YORK,NY,10001-6262,S31
25043,133927797,AUDUBON PARTNERSHIP FOR ECONOMIC DEVELOPMENT LOCAL DEV CORPORATION,% STEVE KADIN,311 EAST 175 STREET,BRONX,NY,10457-0000,S31
25204,133944300,47TH STREET BUSINESS IMPROVEMENT DISTRICT INC,% CHAIRMAN,580 5TH AVE STE 323,NEW YORK,NY,10036-4701,S31
25232,133946529,RENAISSANCE ECONOMIC DEVELOPMENT CORPORATION,% CHRISTOPHER KUI,2 ALLEN STREET 7FL,NEW YORK,NY,10002-5302,S30
25286,133952047,NON-PROFIT ASSISTANCE CORPORATION,% WILLIAM GRINKER,22 CORTLANDT STREET 33RD FLOOR,NEW YORK,NY,10007-3131,S30
25952,134019316,WHITE PLAINS DOWNTOWN DISTRICT MANAGEMENT ASSOCIATION INC,% KEVIN NUNN,235 MAMARONECK AVE STE 200,WHITE PLAINS,NY,10605-1317,S30
26619,134089489,DOWNTOWN NEW ROCHELLE BUSINESS IMPROVEMENT DIST MGMT ASSOC INC,% HOWARD RATTNER,515 NORTH AVE,NEW ROCHELLE,NY,10801-3405,S30
27073,134136763,BETHEL GOSPEL COMMUNITY DEVELOPMENT CORPORATION,% VINCENT WILLIAMS,1832 MADISON AVE,NEW YORK,NY,10035-2707,S31
27344,134165855,CUNY ECONOMIC DEVELOPMENT CORPORATION,,555 W 57TH ST FL 16,NEW YORK,NY,10019-2925,S31
27772,134265021,OPERATION OSWEGO COUNTY FOUNDATION INC,% L MICHAEL TREADWELL,44 W BRIDGE ST,OSWEGO,NY,13126-2026,S30
27816,134303348,DOWNTOWN BROOKLYN NEIGHBORHOOD ALLIANCE,% KAREN DAUGHTRY,415 ATLANTIC AVE,BROOKLYN,NY,11217-1702,S31
30787,140503540,LOISABA COMMUNITY CONSERVATION FOUNDATION INC,% JAMES T TOWNE JR,PO BOX 655,SARATOGA SPGS,NY,12866-0655,S31
32319,141627619,PROMOTE GLOVERSVILLE DEVELOPMENT CORPORATION,,2 N MAIN ST,GLOVERSVILLE,NY,12078-3004,S30
32701,141681502,WARREN COUNTY LOCAL DEVELOPMENT CORPORATION,% PAUL B DUSEK,1340 STATE ROUTE 9,LAKE GEORGE,NY,12845-3434,S30
33522,141763507,FRANKLIN COUNTY LOCAL DEVELOPMENT CORPORATION,,355 W MAIN ST STE 428,MALONE,NY,12953-1826,S31
34058,141798918,HUNTER FOUNDATION INC,,5994 MAIN STREET,TANNERSVILLE,NY,12485-0000,S31
34199,141807610,ROGERS ISLAND HERITAGE DEVELOPMENT ALLIANCE INC,,PO BOX 208,FORT EDWARD,NY,12828-0208,S30
34379,141818989,SULLIVAN-WAWARSING REAP CORP,% APRIL BARSCHOW,PO BOX 5012,MONTICELLO,NY,12701-5192,S32
34678,141845651,NEW YORK WOMENS CHAMBER OF COMMERCE INC,% QUENIA ABREU,1524 AMSTERDAM AVENUE,NEW YORK,NY,10031-8954,S31
34752,141933279,FOREST AVENUE DISTRICT MANAGEMENT ASSOCIATION INC,% SUSAN S MEEKER,686 FOREST AVE,STATEN ISLAND,NY,10310-2507,S30
39024,161081958,ROCHESTER DOWNTOWN DEVELOPMENT CORPORATION,% ROBERT K LEE,100 CHESTNUT ST STE 1910,ROCHESTER,NY,14604-2410,S30
39121,161096074,CANASTOTA DEVELOPMENT CORPORATION,% JOHN PATANE,PO BOX 105,CANASTOTA,NY,13032-0105,S30
39895,161191210,HORNELL INDUSTRIAL DEVELOPMENT CORPORATION,,40 MAIN STREET,HORNELL,NY,14843-1559,S30
40211,161245812,STEUBEN AREA ECONOMIC DEVELOPMENT,% WHEAT & LEHMAN LLP,7234 STATE ROUTE 54,BATH,NY,14810-9587,S30
41792,161426444,LIVINGSTON COUNTY DEVELOPMENT CORP,,6 COURT ST RM 306,GENESEO,NY,14454-1276,S30
42070,161448788,SENECA NATION OF INDIANS ECONOMIC DEVELOPMENT COMPANY,,PO BOX 437,SALAMANCA,NY,14779-0437,S30
42225,161460592,CATTARAUGUS COUNTY BUSINESS DEVELOPMENT CORPORATION,% MATTHEW KELLER,PO BOX 1320,OLEAN,NY,14760-6320,S30
42247,161462402,SUGAR HILL DEVELOPMENT CORP,% CHARLES O JESSUP,PO BOX 177,ALFRED STATION,NY,14803-0000,S30
42269,161464168,DOWNTOWN SPECIAL SERVICES INCP INC,% HIEDI N ZIMMER-MEYER,100 CHESTNUT STREET 1910,ROCHESTER,NY,14604-0000,S30
42429,161475745,SOUTHERN TIER ECONOMIC DEVELOPMENT INC,% SAYLES & EVANS,1 W CHURCH ST,ELMIRA,NY,14901-2741,S30
42604,161488538,WYOMING COUNTY COMMUNITY ACTION INC,% MARTIN D MUCHER,6470 ROUTE 20A 1,PERRY,NY,14530-0000,S31
43032,161516181,THOUSAND ISLANDS REGIONAL TOURISM DEVELOPMENT CORPORATION,% GARY DEYOUNG DIRECTOR OF TOURISM,43373 COLLINS LANDING RD,ALEX BAY,NY,13607-2210,S30
43085,161520256,DUNKIRK LOCAL DEVELOPMENT CORPORATION,% PATRICK R WAWRO,338 CENTRAL AVE STE 2,DUNKIRK,NY,14048-2100,S31
43131,161523539,CENTER FOR ECONOMIC & ENVIROMENTAL PARTNERSHIP INC,% DAVID ALEXANDER,PO BOX 8625,ALBANY,NY,12208-0625,S30
43364,161537928,INCLUSIVE ECONOMY CNY INC,% C/O COOPERATIVE FEDERAL,1816 ERIE BLVD E,SYRACUSE,NY,13210-0000,S31
43564,161551124,REMSEN DEVELOPMENT CORPORATION,,PO BOX 263,REMSEN,NY,13438-0263,S30
43633,161554600,HUDSON VALLEY TOURISM INC,% ANN COOPER,401 STATE ST,HUDSON,NY,12534-1915,S30
43676,161556274,CARTHAGE INDUSTRIAL DEVELOPMENT CORPORATION,,414 STATE ST,CARTHAGE,NY,13619-1414,S30
43685,161556450,NFLP BUFFALO BILLS ALUMNI CHAPTER INC,% JAECKLE FLEISCHMANN & MUGEL LLP,1648 LAKEVIEW RD,LAKE VIEW,NY,14085-9706,S31
43732,161558667,ORLEANS COUNTY LOCAL DEVELOPMENT CORP,% COIDA,121 NORTH MAIN STREET,ALBION,NY,14411-1237,S30
43911,161567484,GRASSE RIVER HERITAGE AREA DEVELOPMENT CORPORATION,,PO BOX 722,CANTON,NY,13617-0722,S30
43922,161568466,AMPLIFY EQUITY INC,,168 N MAIN ST,ELMIRA,NY,14901-2918,S30
43933,161569132,BUFFALOS GREEN GOLD DEVELOPMENT CORPORATION,% JAMES PITTS,PO BOX 865,BUFFALO,NY,14201-0865,S31
44051,161576206,DELAWARE COUNTY LOCAL DEVELOPMENT CORPORATION,% JAMES THOMPSON,1 COURTHOUSE SQ STE 4,DELHI,NY,13753-1602,S30
44163,161582458,JAMESTOWN CENTER CITY DEVELOPMENT CORPORATION,% THE GEBBIE FOUNDATION,319 WEST THIRD STREET,JAMESTOWN,NY,14701-4933,S30
44168,161582745,MONTGOMERY COUNTY PARTNERSHIP INC,% MARK KILMER,2 NORTH MAIN STREET,GLOVERSVILLE,NY,12078-0000,S30
44211,161585758,SENECA COUNTY ECONOMIC DEVELOPMENT CORPORATION,,1 DIPRONIO DR,WATERLOO,NY,13165-1680,S30
44231,161586614,ROME UP AND RUNNING INC,,503 N GEORGE ST,ROME,NY,13440-4101,S30
44436,161598005,TWIN TIERS ECONOMIC DEVELOPMENT INC,% ARIE J VAN DEN BLINK,400 EAST CHURCH STREET,ELMIRA,NY,14901-0000,S30
44549,161603812,GREECE ECONOMIC DEVELOPMENT PROJECTS INC,% EDWARD MARIANETTI,1 VINCE TOFANY BLVD,ROCHESTER,NY,14612-5016,S30
44591,161606023,F O C U S GREATER SYRACUSE INC,% CITY HALL COMMONS,300 S STATE ST STE 520,SYRACUSE,NY,13202-2060,S30
44614,161607609,CLIFTON FINE ECONOMIC DEVELOPMENT CORPORATION,% WILLIAM S HUNTER,PO BOX 115,WANAKENA,NY,13695-0115,S30
44660,161610667,WEBSTER VILLAGE BUSINESS IMPROVEMENT MANAGEMENT ASSOC INC,,PO BOX 941,WEBSTER,NY,14580-0000,S30
46912,166492112,THE GREATER DELHI AREA FOUNDATION,% THE DELAWARE NATIONAL BANK OF DEL,124 MAIN ST,DELHI,NY,13753-1213,S30
47002,200045564,LEWIS COUNTY DEVELOPMENT CORP,% GLEN GAGNIER,PO BOX 106,LOWVILLE,NY,13367-0106,S30
47247,200392634,FRANKLIN IMPROVEMENT SOCIETY OF FRANKLIN NY,% KIM HYZER,PO BOX 166,FRANKLIN,NY,13775-0166,S30
47503,200740845,T O P ENTERPRISES INC,% DWIGHT E BROWN,971 JEFFERSON AVE,BUFFALO,NY,14204-1010,S31
47525,200774906,HESTER STREET COLLABORATIVE INC,% EVA ALLIGOOD,113 HESTER STREET,NEW YORK,NY,10002-0000,S31
47792,201263893,LUTHER FOREST TECHNOLOGY CAMPUS ECONOMIC DEVELOPMENT CORPORATION,% J THOMAS ROOHAN,519 BROADWAY,SARATOGA SPGS,NY,12866-2208,S30
48230,201960550,CORTLAND REGIONAL SPORTS COUNCIL INC,% MACHELL PHELPS,100 GRANGE PLACE 209,CORTLAND,NY,13045-0000,S30
48447,202264584,THE WORKING WORLD INC,% STEFANIE BARLEY,228 PARK AVENUE SOUTH 65768,NEW YORK,NY,10003-0000,S30
48511,202380204,BUFFALO JEREMIAH PARTNERSHIP FOR COMMUNITY DEVELOPMENT,% RICHARD ALLEN STENHOUSE,1525 MICHIGAN AVE,BUFFALO,NY,14209-1721,S30
48534,202424865,TOWN OF PLATTSBURGH LDC INC,% PHILIP B CORELL,151 BANKER RD,PLATTSBURGH,NY,12901-7307,S31
48602,202568137,TOWN OF NORTH HEMPSTEAD BUSINESS AND TOURISM DEVELOPMENT CORP,% TOWN OF NORTH HEMSTEAD,51 ORCHARD STREET,ROSLYN HEIGHTS,NY,11577-0000,S31
48659,202659913,MYRTLE AVENUE BROOKLYN DISTRICT MANAGEMENT ASSOCIATION INC,% THOMAS SCHUTTE,472 MYRTLE AVENUE 2ND FLOOR,BROOKLYN,NY,11205-2522,S30
48660,202660238,BOC DEVELOPMENT CORP,% NANCY CARIN,85 S OXFORD ST,BROOKLYN,NY,11217-1607,S31
48670,202681698,BUFFALO BROWNFIELD RESTORATION CORPORATION,% PETER M CAMMARATA,95 PERRY ST STE 404,BUFFALO,NY,14203-3030,S31
49208,203579392,THE HUDSON VALLEY CENTER FOR INNOVATION INC,% JEFF PEARLMAN CPA,169 MAMARONECK AVE 2ND FL STE 12,WHITE PLAINS,NY,10601-0000,S30
49267,203686339,HARLEM WATERFRONT COUNCIL INCORPORATED,% PEGGY SHEPARD,PEGGY SHEPARD 1854 AMSTERDAM AVENUE,NEW YORK,NY,10031-0000,S30
49637,204230463,WESTMINSTER ECONOMIC DEVELOPMENTINITIATIVE INC,,436 GRANT STREET,BUFFALO,NY,14213-1183,S30
49810,204539725,SEAWAY PRIVATE EQUITY CORPORATION,% CITEC INC,CO CLARKSON UNIVERSITY BOX 8561,POTSDAM,NY,13699-0001,S30
49989,204854777,DOWNTOWN NIAGARA FALLS BUSINESSASSOCIATION INC,% DNUSA,10 RAINBOW BLVD,NIAGARA FALLS,NY,14303-1132,S30
50209,205148995,RICHARDSON CENTER CORPORATION,,444 FOREST AVE,BUFFALO,NY,14213-1209,S30
50307,205311377,NEAR WEST SIDE INITIATIVE INC,% GREEN & SEIFTER ATTORNEYS,115 OTISCO ST,SYRACUSE,NY,13204-3067,S30
50472,205559159,NEW AMSTERDAM PUBLIC MARKETASSOCIATION INC,,40 1ST AVE APT 3I,NEW YORK,NY,10009-7633,S31
50488,205581866,FRIENDS OF PELHAM BAY PARK INC,% PETER QUINONES,PO BOX 71,BRONX,NY,10464-0071,S31
50696,205877789,PHILMONT BEAUTIFICATION INC,% SALLY BAKER,113 MAIN ST PO BOX 1072,PHILMONT,NY,12565-0000,S30
51069,208228215,PHELPS BUSINESS DEVELOPMENT &TOURISM COUNCIL INC,% CHAD SHECKLER,PO BOX 31,PHELPS,NY,14532-0031,S30
51082,208261600,TAIA PEACE FOUNDATION,% ALTMAN GREENFIELD & SELVAGGI,200 PARK AVENUE SOUTH 8TH FLOOR,NEW YORK,NY,10003-1526,S30
51212,208497991,GRAMEEN AMERICA INC,% ANDREW HORROW CPA,8211 37TH AVE STE 607,JACKSON HTS,NY,11372-7015,S31
51260,208626874,CPIWG INC,% MARIAN TRANO,315 W 70TH ST APT 12L,NEW YORK,NY,10023-3576,S30
51491,208995315,SINY INC,,1441 SOUTH AVENUE,STATEN ISLAND,NY,10314-3779,S30
51787,222243540,ADIRONDACK ECONOMIC DEVELOPMENT CORP,,67 MAIN ST STE 300,SARANAC LAKE,NY,12983-5747,S30
53070,222559522,ROCHESTER ECONOMIC DEVELOPMENT CORPORATION,,55 SAINT PAUL ST STE 57,ROCHESTER,NY,14604-1314,S31
54708,223693654,CATSKILL MOUNTAIN CRAFT COLLECTIVE INC,% JUTTA SCHIPPMANN,PO BOX 924,HUNTER,NY,12442-0924,S32
54773,223773177,INSTITUTE FOR QUANTITATIVE RESEARCH,% FRANK MEGALE CPA,CO JAFFE MGMT 555 8TH AVE 1902,NEW YORK,NY,10018-0000,S31
59921,260283628,SENECA FALLS DEVELOPMENTCORPORATION,,20 E BAYARD ST,SENECA FALLS,NY,13148-1623,S31
59974,260372982,ERIE CANALWAY HERITAGE FUND INC,% JOSEPH M CALLAHAN,PO BOX 219,WATERFORD,NY,12188-0219,S30
60048,260512900,INSOURCING,,4451 CHERRY VALLEY TURNPIKE,LAFAYETTE,NY,13084-0000,S30
60411,261278224,SUNNYSIDE DISTRICT MANAGEMENT ASSOCIATION,,PO BOX 4477,SUNNYSIDE,NY,11104-0477,S30
60769,261676815,ST LAWRENCE-NORTH COUNTRY COMMUNITY FOUNDATION INC,% JEN DUNN,101 MAIN STREET,CANTON,NY,13617-0000,S30
61079,262213736,OQI CARES,% HOPETON SMALLING,2624 E FAYETTE ST,SYRACUSE,NY,13224-1124,S31
61263,262533074,GREATER ALLEN DEVELOPMENT CORPORATION,% KEVIN HOWARD,110-42 MERRICK BLVD,JAMAICA,NY,11433-0000,S31
61311,262600494,MARKET DISTRICT BUSINESS ASSOCIATION OF ROCHESTER NY,,20 PUBLIC MARKET 22,ROCHESTER,NY,14609-0000,S30
61577,263068244,COMMUNITY BASED BUSINESS INCUBATOR CENTER INC,% MICHAEL V FRANCHELL,136 TALLMADGE PL,ALBANY,NY,12208-1086,S30
61703,263271791,SOUTHTOWNS COMMUNITY ENHANCEMENT COALITION INC,% TOWN OF EVANS,PO BOX 459,NORTH COLLINS,NY,14111-0459,S30
62133,263838339,LOCKPORT MAIN STREET INC,,160 WASHBURN STREET SUITE 1-202,LOCKPORT,NY,14094-4529,S30
62215,263929453,MERCHITECT DEVELOPMENT INSTITUTE INC,% JEREMY STENNETT,48 WALL STREET 11TH FL,MANHATTAN,NY,10005-2985,S30
62265,264032355,NYBDC LOCAL DEVELOPMENT CORPORATION,,50 BEAVER STREET,ALBANY,NY,12207-1538,S30
62411,264277183,WYOMING COUNTY BUSINESS ASSISTANCE CORPORATION,% JAMES PIERCE,36 CENTER ST STE D,WARSAW,NY,14569-1471,S30
63382,270756427,ADIRONDACK ASSOCIATION OF TOWNS AND VILLAGES INC,,PO BOX 83,HADLEY,NY,12835-0083,S32
63529,270927525,ARISE OF NORTHERN NEW YORK INC,% JAMES LAVALLEY,PO BOX 1200,TUPPER LAKE,NY,12986-0000,S30
63756,271210659,THESSALONICA COMMUNITY HANDS INC,,313 SAINT ANNS AVE,BRONX,NY,10454-2103,S31
63800,271273797,MICHIGAN STREET AFRICAN AMERICAN HERITAGE CORRIDOR COMMISSION INC,% KAVINOKY COOK LLP,136 BROADWAY STE 101,BUFFALO,NY,14203-1630,S30
64164,271727452,ONTARIO COUNTY ECONOMIC DEVELOPMENT CORPORATION,% JOSEPH BRIDGEFORD,20 ONTARIO STREET,CANANDAIGUA,NY,14424-0000,S30
64243,271844156,BUFFALO NIAGARA SPORTS DEVELOPMENT COMPANY INC,% BUFFALO NIAGARA CONV & VIS BUREAU,403 MAIN ST STE 630,BUFFALO,NY,14203-2107,S31
64576,272332649,NEW YORK COMMUNITIES ORGANIZING FUND INC,% JONATHAN WESTIN,1 METROTECH CENTER NORTH 11TH FL,BROOKLYN,NY,11201-0000,S30
64634,272424735,HAMBURG NEW YORK LAND DEVELOPMENT CORPORATION,,6122 SOUTH PARK AVENUE,HAMBURG,NY,14075-0000,S31
64924,272919473,CANTON CAPITAL RESOURCE CORPORATION,,1 MAIN ST STE 101,CANTON,NY,13617-1279,S30
65160,273251795,SPES NOVA INC,% ERICK RENGIFO PHD,56 PARK AVE,LARCHMONT,NY,10538-4223,S30
65204,273314095,BARRETT LENDING CORPORATION,,1347 BARRETT CIR W,CARMEL,NY,10512-4435,S31
65338,273490386,NEW YORK FORUM INSTITUTE INC,% MOUND COTTON WOLLAN & GREENGRASS,C/O THE EXPERIENCE 555 MADISON AVE,NEW YORK,NY,10022-0000,S30
65439,273641025,DOUGLASTON LOCAL DEVELOPMENT CORPORATION,% RAVI THAKUR,234-21 41ST AVENUE 2ND FLOOR,DOUGLASTON,NY,11363-1502,S30
65821,274317873,NORWICH BUILDING TOMORROW FOUNDATION INC,% MARTIN DIETRICH,52 SOUTH BROAD ST,NORWICH,NY,13815-0000,S31
65934,274516734,SOUTHERN TIER NETWORK INC,% MARCIA WEBER,88 E TIOGA AVE STE 201,CORNING,NY,14830-2882,S30
66380,300048898,OWEGO REVITALIZATION AND BETTERMENT CORP,% PHOEBE MORRIS TREASURER,72 MCMASTER ST,OWEGO,NY,13827-1321,S31
66601,300253124,SUTPHIN BOULEVARD DISTRICT MANAGEMENT ASSOCIATION INC,% JOY TOMCHIN,161-10 JAMAICA AVENUE,JAMAICA,NY,11432-6139,S31
66692,300413862,JAMESTOWN RENAISSANCE CORPORATION,% JASON STRONZ,200 E 3RD ST STE 3,JAMESTOWN,NY,14701-5433,S30
66875,300579161,WINDSOR PARTNERS INC,,PO BOX 432,WINDSOR,NY,13865-0432,S30
67258,301347511,CYBERTHICS FOUNDATION INC,,3715 KINGS HWY APT 3G,BROOKLYN,NY,11234-2825,S30
67732,311742615,FOREST HILLS COMMUNITY PROJECTS ASSOCIATION,% JOAN TALBERT,PO BOX 751123,FOREST HILLS,NY,11375-0000,S30
68131,320305260,MSDC INC,,102 WEST 116TH STREET,NEW YORK,NY,10026-2500,S30
68502,331101375,GENESEE GATEWAY LOCAL DEVELOPMENT CORPORATION,% STEVEN G HYDE,99 MEDTECH DRIVE 106,BATAVIA,NY,14020-0000,S30
68675,342001275,BETHESDA COMMUNITY DEVELOPMENT CORPORATION,,1365 MAIN STRET,BUFFALO,NY,14209-0000,S30
68775,352182698,PUTNAM VALLEY RESIDENTS COALITION CORP,% DOLORES JONES,126 BRYANT POND RD,PUTNAM VALLEY,NY,10579-2400,S32
69425,364465022,DOWNTOWN SCHENECTADY IMPROVEMENT CORP,,143 STATE ST,SCHENECTADY,NY,12305-1707,S31
69832,364984379,HOUSING AND EMERGENCY SERVICES FOR LOW INCOME PEOPLE,% SYLVIA BLACK,3843 UNION RD STE 15 # 242,BUFFALO,NY,14225-4256,S30
70015,371588512,JEFFERSON COUNTY LOCAL DEVELOPMENT CORPORATION,,800 STARBUCK AVE STE 800,WATERTOWN,NY,13601-1641,S30
70290,372072695,SHEOWS CARES FOUNDATION INC,,C/O 303 5TH AVENUE,NEW YORK,NY,10016-6601,S30
70516,383873130,WESTCHESTER SQUARE BUSINESS IMPROVEMENT DISTRICT INC,,43 WESTCHESTER SQ FRNT 2,BRONX,NY,10461-3551,S31
70588,383941342,1M1B FOUNDATION,% FICE AMERICA INC,46 WARD AVE,MOUNT KISCO,NY,10549-2918,S30
70809,411800192,THE COMMUNITY DEVELOPMENT VENTURE CAPITAL ALLIANCE,% JUDY BURTON,475 RIVERSIDE DR STE 1264,NEW YORK,NY,10115-0052,S31
70900,412138050,PROSPECT HEIGHTS NEIGHBORHOOD DEVELOPMENT COUNCIL,% GIB VECONI,284 PARK PL,BROOKLYN,NY,11238-3906,S30
70982,412252514,DRYDEN COMMUNITY CENTER CAFE INC,% CHARLES HART,31 LEE RD,DRYDEN,NY,13053-9516,S30
71100,421613553,CLAYTON LOCAL DEVELOPMENT CORPORATION,,913 STRAWBERRY LN,CLAYTON,NY,13624-1409,S31
71126,421650478,CHINATOWN PARTNERSHIP LOCAL DEVELOPMENT CORPORATION,,217 PARK ROW 2FL9,NEW YORK,NY,10038-1101,S30
71330,432063652,LIBERTY COMMUNITY DEVELOPMENT CORP,% DIANNE J BRADY,167 NORTH MAIN STREET 2ND FL,LIBERTY,NY,12754-1864,S30
71533,450722514,WEST HARLEM DEVELOPMENT CORPORATION,,423 W 127TH ST SUITE A,NEW YORK,NY,10027-2561,S30
71549,450846197,50-50 MICROFINANCE ENTERPRISES INC,% ETHAN WAGNER,599 E 7TH ST,BROOKLYN,NY,11218-5911,S30
71625,451474185,INVESTAMERICA PARTNERS INC,% MICHAEL KLEIN,640 FIFTH AVE,NYC,NY,10019-6102,S30
71833,452344082,GOWANUS ALLIANCE BOARD OF TRADE INC,% JISELLE BASILE,135 13TH ST,BROOKLYN,NY,11215-4603,S31
71913,452452108,HUDSON VALLEY ECONOMIC DEVELOPMENT NETWORK INC,% DEANNE ROBERTSON,42 CATHARINE STREET,POUGHKEEPSIE,NY,12601-0000,S30
71939,452481780,BRRALLIANCE INC,% MARY ANN KEDRON,52 AMHERST ST,BUFFALO,NY,14207-2748,S30
72297,452947617,BLACK CHAMBER OF COMMERCE OF NEW YORK CITY INC,% TOSHA MILLER,237 LEXINGTON AVE,BROOKLYN,NY,11216-1115,S31
72445,453190226,HARDESTY RENAISSANCE ECONOMIC DEVELOPMENT CORPORATION,% ASIAN AMERICANS FOR EQUALITY,2 ALLEN STREET 7TH FLOOR,NEW YORK,NY,10002-5302,S30
72579,453533828,BIOBAT INC,% STATE UNIVERSITY OF NEW YORK DOWN,450 CLARKSON AVE,BROOKLYN,NY,11203-2012,S31
73056,454151593,FAIRPORT PARTNERSHIP FOR A BETTER COMMUNITY INC,% R SCOTT WINNER,6 N MAIN STREET,FAIRPORT,NY,14450-1524,S31
73603,454949226,ATLANTIC AVENUE DISTRICT MANAGEMENT ASSOCIATION INC,,306 ATLANTIC AVENUE,BROOKLYN,NY,11201-6698,S31
73721,455122714,CORTLAND COUNTY DEVELOPMENT CORPORATION,% KAREN NIDAY,40 MAIN ST STE A,CORTLAND,NY,13045-3723,S30
73992,455484405,DEMOCRACYATWORK INFO,% RICHARD WOLFF,523 EAST 14TH STREET APT 1W,NEW YORK,NY,10009-2927,S30
74327,460714153,INDIAN LAKE COMMUNITY DEVELOPMENT CORPORATION,% R ARMSTRONG,PO BOX 355,INDIAN LAKE,NY,12842-0355,S30
75002,461547375,TOMPKINS COUNTY AREA DEVELOPMENT FOUNDATION INC,,119 EAST SENECA STREET 200,ITHACA,NY,14850-0000,S31
76164,463122950,FUZEHUB INC,,25 MONROE ST STE 201,ALBANY,NY,12210-2729,S30
76528,463582754,BUFFALO ERIE NIAGARA LAND IMPROVEMENT CORPORATION,% JOCELYN GORDON,403 MAIN ST STE 602,BUFFALO,NY,14203-2112,S31
76541,463600343,ROCHESTER LAND BANK CORPORATION,% KATHERINE SHEETS,30 CHURCH ST RM 125B,ROCHESTER,NY,14614-1290,S30
76602,463685941,SUFFOLK COUNTY LANDBANK CORPORATION,% TOM KELLY,PO BOX 6100,HAUPPAUGE,NY,11788-0099,S31
76684,463790675,OLD SEAPORT ALLIANCE,% WHITNEY BARRAT,CO COWGIRL SEAHORSE 259 FRONT ST,NEW YORK,NY,10038-0000,S30
77212,464335287,INTERVAL PROJECTS INC,,100 WEST 141ST STREET APT 37,NEW YORK,NY,10030-0000,S31
77364,464536112,BURUNDI DEVELOPMENT INITIATIVES,% JULIE NSANZURWIMO,2753 KINGSBRIDGE TER APT 3,BRONX,NY,10463-7572,S31
77706,465012783,MARGINATION INC,,1018 9TH AVE,TROY,NY,12182-1504,S30
77754,465081559,WHEELS COLLECTIVE INC,% CHRISTINA JAUS,2146 BARNES AVE APT 107,BRONX,NY,10462-1956,S30
77977,465359073,LOCKPORT LOCKS HERITAGE DISTRICT CORPORATION,,ONE LOCKS PLAZA,LOCKPORT,NY,14094-3640,S30
78188,465644936,BUSINESS STARTUP SOLUTIONS OF NEW YORK INC,% PAMELA R DODGE,8 POMANDER WALK,E ROCHESTER,NY,14445-2263,S30
78463,471044631,SOHO BROAADWAY DISTRICT MANAGEMENT ASSOCIATION,% NEWMARK GRUBB,594 BROADWAY RM 1107,NEW YORK,NY,10012-3289,S30
78500,471079280,BROOKLYN COMMUNITY ECONOMIC DEVELOPMENT CORPORATION,,338 ATLANTIC AVE APT 204,BROOKLYN,NY,11201-5828,S31
78635,471244417,SARATOGA COUNTY PROSPERITY PARTNERSHIP INC,% JOHN LAWLER,28 CLINTON ST STE 2,SARATOGA SPGS,NY,12866-2143,S30
78640,471247857,HUDSON YARDS HELLS KITCHEN BUSINESS IMPROVEMENT DISTRICT INC,,412 WEST 42ND STREET 3 FL,NEW YORK,NY,10036-6809,S30
78911,471562167,NYC NEIGHBORHOOD CAPITAL CORPORATION,% GENERAL COUNSEL,ONE LIBERTY PLAZA,NEW YORK,NY,10006-1404,S30
79337,471990126,SLEEPY HOLLOW LOCAL DEVELOPMENT CORPORATION,% ANTHONY GIACCIO CEO,28 BEEKMAN AVENUE,TARRYTOWN,NY,10591-2602,S30
80236,472847445,URBAN MANUFACTURING ALLIANCE,,1216 BROADWAY,NEW YORK,NY,10001-4483,S31
80257,472878159,43NORTH BPC INC,% LAURENCE K RUBIN,1 WEST SENECA TOWER FLR 24,BUFFALO,NY,14203-0000,S31
80372,473061398,INDEPENDENT INSURANCE AGENTS OF CENTRAL NEW YORK INC,% C/O KATHY LAWLER,5784 WIDEWATERS PARKWAY,DEWITT,NY,13214-1878,S31
80658,473405125,FRIENDS OF BROOKLYN QUEENS CONNECTOR,% ANDREW STEININGER,55 WASHINGTON ST STE 732,BROOKLYN,NY,11201-1119,S30
80727,473503594,GREENE LOCAL DEVELOPMENT CORPORATION,% APRIL ERNST,45 SUNSET BLVD,COXSACKIE,NY,12051-1143,S30
81143,473960901,CATTARAUGUS COUNTY ECONOMIC SUSTAINABILITY AND GROWTH CORPORAT,% DEPARTMENT OF EDP&T,303 COURT ST 2ND F,LITTLE VALLEY,NY,14755-1028,S30
81196,474026240,BERRYBIZZY HUMAN BEING INC,,556 W 158TH ST UNIT 321792,NEW YORK,NY,10032-9506,S31
81831,474693170,NORTH AMERICAN CENTER OF EXCELLENCE FOR TRANSPORTATION EQUIPMENT INC,,PO BOX 310,PLATTSBURGH,NY,12901-0310,S30
82004,474889716,BROOKLYN FASHION INCUBATOR INC,% MARIA BARRAZA,147 PRINCE ST,BROOKLYN,NY,11201-3022,S30
82067,474956711,BRIDGE TO BLESSINGS INC,% NOT APPLICABLE,13228 158TH ST,JAMAICA,NY,11434-2924,S31
82207,475104440,CONNECTED COMMUNITIES INC,,1337 EAST MAIN STREET,ROCHESTER,NY,14609-6949,S30
82492,475407915,KING SOLOMON COMMUNITY DEVELOPMENT CORPORATION,% JENNIE JOHNSON,92 MONROE ST,BUFFALO,NY,14206-1522,S31
82523,475464829,CDC OF UPSTATE NEW YORK INC,,1001 LEXINGTON AVENUE,ROCHESTER,NY,14606-2847,S31
82617,475560465,SHAHGUSTAFSSON FOUNDATION,,1 N LEXINGTON AVE STE 1101,WHITE PLAINS,NY,10601-1724,S30
82647,475591125,WYANDANCH PLAZA ASSOCIATION INC,,40 STATION DRIVE,WYANDANCH,NY,11798-3446,S30
84486,522228170,POSITIVE PLANET US CORP,% INGRID GONZALEZ,136 MADISON AVENUE 6TH FLOOR,NEW YORK,NY,10016-6795,S31
84581,522367265,CAYUGA COUNTY DEVELOPMENT CORPORATION,% STEPHEN F LYNCH,160 GENESEE STREET,AUBURN,NY,13021-3424,S30
85069,550894876,H A A D E L INC,% WELER BRESIER,85 WELLINGTON RD,ELMONT,NY,11003-0000,S32
85756,582672551,ASSEMBLY FOR LIBERTYS INVESTMENT IN VISUAL ENHANCEMENT INC,% SUSAN KRAYCER,167 N MAIN ST,LIBERTY,NY,12754-1864,S30
85863,593814814,TRUFUND FINANCIAL SERVICES INC,% KENNETH HARVEY,39 WEST 37TH STREET 7TH FLOOR,NEW YORK,NY,10018-0000,S30
86051,611573435,PECONIC GREEN GROWTH INC,% GLUNIS BERRY,24190 MAIN ROAD UNIT 444,ORIENT,NY,11957-1103,S30
86582,651177449,OBERLIN CATALYST COMMUNITY DEVELOPMENT CORPORATION,% BEN EZINGA,PO BOX 743,HUDSON,NY,12534-0743,S31
86641,651231790,TOWN OF HUNTINGTON ECONOMIC DEVELOPMENT CORPORATION,% ROBERT RIPP PRES,100 MAIN ST,HUNTINGTON,NY,11743-6904,S30
87427,753225637,HUDSON VALLEY AGRI-BUSINESS DEVELOPMENT CORPORATION,% TODD ERLING,507 WARREN ST STE 2,HUDSON,NY,12534-2899,S32
87790,800194411,YONKERS COMMITTEE FOR SMART DEVELOPMENT,% TERRY JOSHI,29 ROCKLAND AVE,YONKERS,NY,10705-1620,S30
87862,800260957,WEBSTER COMMUNITY COALITION FOR ECONOMIC DEVELOPMENT CORP,% PAT MURRAY,28 W MAIN ST,WEBSTER,NY,14580-2902,S30
88215,800516549,CAYUGA ECONOMIC DEVELOPMENT AGENCY INC,,2 STATE ST,AUBURN,NY,13021-3625,S30
88397,800668125,DOBBS FERRY LOCAL DEVELOPMENT CORPORATION,,112 MAIN ST,DOBBS FERRY,NY,10522-4622,S30
88684,810568035,CHAUTAUQUA OPPORTUNITIES FOR DEVELOPMENT INC,% SARAH TRANTUM,17 W COURTNEY ST,DUNKIRK,NY,14048-2754,S30
88755,810638150,NORTH EASTERN EXPANSION DEVELOPMENT CORP,% NADIA JOHNSON,PO BOX 444,WASSAIC,NY,12592-0444,S30
88896,810788036,MEATPACKING DISTRICT MANAGEMENT ASSOCIATION INC,,32 GANSEVOORT STREET,NEW YORK,NY,10014-1669,S30
89381,811321280,FILLMORE FORWARD,% RITA GRAY,780 FILLMORE AVE,BUFFALO,NY,14212-1342,S30
89808,811983565,BREAKOUT FOUNDATION INC,% GRAHAM COHEN,224 W 35TH ST STE 500 UNIT 512,NEW YORK,NY,10001-2538,S31
89965,812256483,RECREATION AND ECONOMI DEVELOPMENT CORPORATION OF SUFFOLK,% LYNNE BIZZARRO,100 VETERANS MEMORIAL HWY,HAUPPAUGE,NY,11788-5402,S30
90358,812782023,NEIGHBORHOOD STRATEGIES INC,,15 GAYNOR AVENUE APT 2E,MANHASSET,NY,11030-0000,S30
90445,812871972,FULTON MARKET ASSOCIATION INC,% STEPHEN C DIMA,535 CARLTON AVE APT 1801,BROOKLYN,NY,11238-4488,S30
90467,812891028,FINGER LAKES OPPORTUNITY FOR TOURISM GROWTH INC,% PRESIDENT,309 LAKE ST,PENN YAN,NY,14527-1806,S31
90537,812988918,GET YOUR LIFE BACK INC,% LINDA BROADWAY,271 NORTH AVENUE,NEW ROCHELLE,NY,10801-5104,S30
90815,813344989,CATTARAUGUS COUNTY LAND BANK CORPORATION,% DEPARTMENT OF EDP&T,303 COURT ST,LITTLE VALLEY,NY,14755-1028,S30
91291,813967418,ROCHESTER MARKET DRIVEN COMMUNITY CORPORATION,,PO BOX 14809,ROCHESTER,NY,14614-0809,S31
91304,813975480,GREATER GOOD DYNAMICS,% ROBERT GEORGE,28 LINDEN FARM LN,RED HOOK,NY,12571-3330,S32
91697,814459304,CULTURAL ROW BLOCK ASSOCIATION ON EASTERN PARKWAY INC,% LOUISE TRUBEK,85 EASTERN PARKWAYSUITE 1A,BROOKLYN,NY,11238-0000,S31
91834,814632031,NASSAU COUNCIL OF CHAMBERS OF COMMERCE CHARITABLE FOUNDATION INC,,1576 FRONT ST,EAST MEADOW,NY,11554-0000,S30
92819,820939626,SULLIVAN COUNTY LAND BANK CORPORATION,% FREDA EISENBERG,PO BOX 5012,MONTICELLO,NY,12701-0000,S30
92953,821159050,MAMAKATING LOCAL DEVELOPMENT CORPORATION,,PO BOX 761,WURTSBORO,NY,12790-0761,S30
93146,821443905,KOINONIA VENTURES INC,% ST MARK COPTIC CHURCH,ST MARK COPTIC CHURCH PO BOX 385,WOODBURY,NY,11797-0000,S30
93153,821454431,TAPROOT COLLECTIVE INC,,20 FIRST ST UNIT B,ROCHESTER,NY,14605-2423,S31
94143,822628096,BURA INC,% TRACY COOLEY,65 NIAGARA SQ RM 901,BUFFALO,NY,14202-3309,S30
94238,822728668,LIVINGSTON COUNTY LAND BANK CORPORATION,% IAN M COYLE,6 COURT ST RM 305,GENESEO,NY,14454-1043,S31
95009,823643027,NIAGARA ORLEANS REGIONAL LAND IMPROVEMENT CORPORATION,% ANDREA KLYCZEK,6311 INDUCON CORPORATE DRIVE,SANBORN,NY,14132-9012,S31
95151,823798820,ENDOW FOUNDATON INC,% ENDOW,772 ERIE STATION RD,W HENRIETTA,NY,14586-9998,S30
95476,824235338,AFRICAN HERITAGE ECONOMIC INITIATIVE,,48 DORRIS AVE,BUFFALO,NY,14215-3206,S31
95667,824493084,BUFFALO REANIMATE,% BUFFALO REANIMATE,240 70TH STREET,NIAGARA FALLS,NY,14304-0000,S31
95776,824654920,LOCATE FINGER LAKES INC,% CUDDY & WARD LLP RICHARD WARD,PO BOX 622,WATERLOO,NY,13165-0622,S30
95868,824796146,NIAGARA USA CHAMBER FOUNDATION INC,% DINENE ZALESKI,6311 INDUCON CORPORATE DRIVE,SANBORN,NY,14132-9012,S30
95887,824825464,WOMENS ECONOMIC INSTITUTE,% CHARLENE TARVER,334 W COLVIN ST,SYRACUSE,NY,13205-1423,S30
96102,825146327,ANZAFRIKA,% ERIC LETELLIER,1214 W BOSTON POST RD BOX 298,MAMARONECK,NY,10543-0000,S30
96245,825317351,COOPPORTUNITY,% COOPERATIVE DEVELOPMENT PROGRAM,443 39TH STREET,BROOKLYN,NY,11232-2037,S31
96757,830740820,MORRIS PARK DISTRICT MANAGEMENT ASSOCIATION INC,,966 MORRIS PARK AVE,BRONX,NY,10462-3715,S30
96930,830972521,LUCKY PEARL INTERIORS INC,% MILDRED DIAZ,32 COURT ST STE 701,BROOKLYN,NY,11201-4404,S31
97079,831176909,BAINBRIDGE DEVELOPMENT CORPORATION,% DAVE DECLUE,34 KIRBY ST,BAINBRIDGE,NY,13733-1147,S30
97517,831766314,BUILDING 127 LL INC,% BROOKLYN NAVY YARD DEVELOPMENT CO,141 FLUSHING AVENUE 801,BROOKLYN,NY,11205-1338,S30
98698,833091628,THE UMMAH GROUP INC,% ASKIA MUHAMMAD,168-30 127 AVENUE,NEW YORK,NY,10027-0000,S30
98713,833107591,GREENE COUNTY ECONOMIC DEVELOPMENT CORPORATION,% GC ECONOMIC DEVELOPMENT CORP,411 MAIN ST STE 419,CATSKILL,NY,12414-1367,S30
98842,833259596,RELOOPPLATFORM AMERICAS INC,% CLARISSA MORAWSKI,55 OLD CONKLIN HL,STANFORDVILLE,NY,12581-5649,S30
99260,833836544,MYRICK FOUNDATION INC,,PO BOX 140839,STATEN ISLAND,NY,10314-0839,S30
99313,833910629,MACEDONIA PROJECT,% DORALYNN R BONDS,619 COMMONWEALTH AVENUE,BRONX,NY,10473-3500,S31
99579,834301753,LIN CHARITABLE FOUNDATION,% NELSON LIN,75 W END AVE APT P2G,NEW YORK,NY,10023-7868,S30
99594,834324097,EVEREST ENTERPRISERS INC,% NELSON LIN,75 W END AVE APT P2G,NEW YORK,NY,10023-7868,S30
99674,834436881,BFP CREATIVE INC,,119 INGRAHAM STREET SUITE 108,BROOKLYN,NY,11237-1984,S31
99753,834563943,SKYLAR VENTURES INCORPORATED,% NELSON LIN,75 W END AVE APT P2G,NEW YORK,NY,10023-7868,S30
99815,834645510,FRANK AND SUSIE LIN FOUNDATION,% NELSON LIN,75 W END AVE APT P2G,NEW YORK,NY,10023-7868,S30
99936,841622031,OCEAN BAY COMMUNITY DEVELOPEMENT CORPORATION,% DELORES SADLER,434 BEACH 54TH ST,ARVERNE,NY,11692-1550,S31
100376,842112665,EXCELSIOR LOCAL DEVELOPMENT CORPORATION,,50 BEAVER STREET,ALBANY,NY,12207-1538,S30
100494,842283500,TRANSFORM FINANCE INC,% CURTIS LYON - SECRETARY & TREASUR,188 GRAND ST APT 2,NEW YORK,NY,10013-3752,S30
100834,842654843,FARM AND FOOD GROWTH FUND INC,,507 WARREN ST STE 2,HUDSON,NY,12534-2899,S30
100883,842729998,SUCCESS WITHOUT LIMITATIONS INC,% SUCCESS WITHOUT LIMITATIONS INC,11 CIRCLE DR,WHEATLEY HTS,NY,11798-1010,S31
101040,842924820,DREAMERSCORP INC,,4498 MAIN ST STE 4,BUFFALO,NY,14226-3826,S31
101118,842999033,ACHIEVMENT EXPLORERS INC,% PAUL MARTIN,1825 PARK AVENUE,NEW YORK,NY,10035-1932,S30
101811,843779044,TECHSTART INC,,71 GLENDALE PARK,ROCHESTER,NY,14613-2319,S30
101947,843924579,FOUNDATION OF FREEDOM INC,% EARL THOMASON JR,981 LAFAYETTE AVENUE,BROOKLYN,NY,11221-2328,S31
102068,844058366,FIVE BOROUGH JOBS CAMPAIGN,% RANDOLPH PEERS,570 LEXINGTON AVE FL 2,NEW YORK,NY,10022-6736,S30
102163,844151710,NORTH PARK COMMUNITY DEVELOPMENT CORPORATION,% ANISSA MOORE,101 EAST PARK AVENUE,LONG BEACH,NY,11561-6655,S31
102343,844385147,PELHAM LOCAL DEVELOPMENT CORPORATION,% CHRIS SCELZA,195 SPARKS AVE,PELHAM,NY,10803-1829,S30
102736,844988546,LEAD WYOMING COUNTY INC,% SCOTT GARDNER,36 CENTER STREET,WARSAW,NY,14569-1471,S30
103068,850743842,BROOKLYN DONATES INC,,280 OCEAN PARKWAY,BROOKLYN,NY,11218-4056,S30
103403,851272545,C-BETTER FOUNDATION INC,,35 BROOKDALE AVE,NEW ROCHELLE,NY,10801-2801,S31
103442,851319291,PUBLIC MONEY ACTION LTD,,450 RIVERSIDE DR,NEW YORK,NY,10027-6820,S30
103467,851353461,NAPLES AREA ECONOMIC DEVELOPMENT COALITION INC,,156 VICTOR MENDON RD,MENDON,NY,14506-9717,S30
103627,851599991,PITCH HAMBURG INC,% SEAN DOYLE,40 MAIN STREET,HAMBURG,NY,14075-4948,S30
103740,851791672,YOUNG AFRICAN GIRLS EMPOWERMENT INC,% OUMOU HANI ZAKARIA,2247 WALTON AVE APT 805,BRONX,NY,10453-1924,S30
104056,852402420,DOROTHY DAY HOUSING DEVELOPMENT FUND COMPANY INC,% BROADWAY HOUSING COMMUNITIES INC,583 RIVERSIDE DRIVE 7TH FL,NEW YORK,NY,10031-8346,S31
104280,852736800,KEREN ACHDUS INC,,1169 E 8TH ST,BROOKLYN,NY,11230-4701,S31
104338,852819206,INNER CITY GREEN TEAM ECONOMIC & ENVIRONMENTAL DEVELOPMENT,,383 EAST 143 ST,BRONX,NY,10454-1218,S30
104585,853122376,NATIONAL BASKETBALL ASSOCIATION FOUNDATION,% BRIAN MCDERMOTT,645 FIFTH AVENUE,NEW YORK,NY,10022-5910,S31
104621,853169615,GLOBAL EQUITY MOVEMENT FOUNDATION,% TIMOTHY CORPREW,PO BOX 3281,NEW YORK,NY,10017-0000,S30
105056,853795207,PROJECT COME UP INC,% OLIVER GRAY,44-70 21ST 3134,LONG ISLAND CITY,NY,11101-5114,S30
105470,854274099,NICHE MARKET INSIGHTS FOUNDATION INC,% LOMAX CAMPBELL,23 BROOKSCREST WAY,ROCHESTER,NY,14611-4060,S30
105492,854302409,FOUNDERS IMPACT NEW ENTERPRISE,% PAUL P MARTIN,140 WEST 31ST STREET,NEW YORK,NY,10001-3411,S30
105641,861092812,PROMETHEUS INSTITUTE FOR SUSTAINABLE DEVELOPMENT,% TRAVIS BRADFORD,520 W 112TH ST APT 16A,NEW YORK,NY,10025-1604,S30
105709,861186002,WOMEN ENTREPRENEURS INTERNATIONAL,% KIMBERLEY BUENO,156 BEEKMAN ST,NEW YORK,NY,10038-2051,S30
105938,861497141,FTS FOUNDATION INC,% THOMA CARPITELLA,18 MERRYHILL LN,PITTSFORD,NY,14534-1865,S30
106392,862253352,VILLAGE-CHELSEA COMMUNITY DEVELOPMENT CORPORATION,% MARIA DIAZ,PO BOX 1116,NEW YORK,NY,10113-1116,S30
106681,862705965,COMMUNITY TAX RELIEF INC,,2606 E 15TH ST STE 305,BROOKLYN,NY,11235-3830,S31
107279,863756053,UPSTATE ECONOMIC OPPORTUNITY INC,,500 SENECA ST STE 508,BUFFALO,NY,14204-1963,S30
107296,863784520,PEAKS ISLAND INFORMATION INC,% ALICIA KERSHAW,95 FRANKLIN ST APT 4,NEW YORK,NY,10013-3471,S31
107491,870793638,FLATBUSH NOSTRAND JUNCTION DISTRICT MANAGEMENT ASSOCIATION INC,% BKLYN COLLEGE,1616 NEWKIRK AVE,BROOKLYN,NY,11226-6612,S31
107874,871380072,WMCC FOUNDATION INC,% CHARLENE NIXON,177A E MAIN ST,NEW ROCHELLE,NY,10801-5711,S30
107883,871396739,NAQUAIN J KEY MEMORIAL FOUNDATION INC,,13447 174TH ST,JAMAICA,NY,11434-4539,S31
108086,871695854,THE DAVID A COULTER AND SUSAN C WEEKS CHARITABLE FOUNDATION,% THE AYCO COMPANY LP - NTG,PO BOX 15201,ALBANY,NY,12212-5201,S30
108651,872458311,PLAY2EARN FOUNDATION INC,% CHRIS GONSALVES,223 BEDFORD AVE STE A 2009,NEW YORK,NY,11211-4171,S30
109249,873372148,GRAND PENN COMMUNITY ALLIANCE INC,% GEORGE LENCE,28 WEST 44TH STREET 301,NEW YORK,NY,10036-0000,S30
110271,874823994,BLACK ENTREPRENEUR MARKET,% ELISE MCMAHON,224 STATE ST,HUDSON,NY,12534-1826,S31
110392,880673497,VOICE OF THE COMMUNITY,% YVES LAMBERT,1363 E 92ND ST,BROOKLYN,NY,11236-4822,S31
110479,880843128,HOLMES EXPERIENCE INC,,1510 ARCHER RD APT 4E,BRONX,NY,10462-5855,S31
110519,880923039,FAIRVIEW EMPOWERMENT GROUP,,339 TARRYTOWN ROAD SUITE 1051,ELMSFORD,NY,10523-3417,S31
110870,881472299,RED HOOK COMMUNITY BUSINESS ALLIANCE,% SUSAN POVICH,160 IMLAY ST APT 4C1,BROOKLYN,NY,11231-1673,S30
111326,882267245,NY CROSSROADS INC,% LEON GREENE,726 EXCHANGE ST STE 800,BUFFALO,NY,14210-1465,S30
111530,882534735,MINORITY MINDZ INC,% TASHAYLA WILLIAMS,455 E 45TH ST,BROOKLYN,NY,11203-4119,S31
111608,882651887,SADAQAH BRIDGE FOUNDATION INC,% MAWA KEITA,557 HALSEY ST FL 2,BROOKLYN,NY,11233-1101,S31
111750,882883310,LIBRA HOUSE 9 INC,,20 RICHMAN PLZ APT 31E,BRONX,NY,10453-6512,S31
111852,883012790,LOCAL SHOPPING EDUCATION,% EPHRAIM NEUMAN,176 MAPLE AVENUE SUITE 309,MONSEY,NY,10952-3183,S30
111895,883085960,BLACK WOMENS BUSINESS COLLECTIVE INC,% ZANADE MANN,1060 BROADWAY,MENANDS,NY,12204-2507,S30
112706,884241982,HERE INC,% ELENE SPANAKOS WEIS ESQ,14 WEST DR,LARCHMONT,NY,10538-1218,S30
113367,900642083,TICONDEROGA REVITALIZATION ALLIANCE INC,% ALLIANCE INC,PO BOX 247,TICONDEROGA,NY,12883-0247,S30
113571,900853595,URBAN EMPOWERMENT FUND,% PAUL WYCISK,80 PINE STREET 9TH FLOOR,NEW YORK,NY,10005-1702,S31
113648,900923200,LONG BEACH LOCAL DEVELOPMENT CORPORATION,% HARRIS BEACH PLLC,1 W CHESTER ST,LONG BEACH,NY,11561-2016,S30
114432,920474449,ABURA KIDS INTERNATIONAL INC,,22316 108TH AVE,QUEENS VLG,NY,11429-2414,S30
114692,920847027,16TH DISTRICT ECONOMIC AND ADVISORY INC,% GLORY THOMAS,348 W COLVIN ST,SYRACUSE,NY,13205-1423,S31
115113,921383658,FINDLEY LAKE FORWARD INC,% WILLIAM E SIMPKINS,2116 SHADYSIDE RD,CLYMER,NY,14724-9649,S30
115352,921737833,SEED OF THE FREEDOM INC,% VLADIMIR VOLOKH,45 OCEANA DR E APT 1J,BROOKLYN,NY,11235-6677,S31
115463,921953714,CENTER FOR REGIONAL STRATEGIES INC,% LAURENCE RUBIN,726 EXCHANGE STREET 802,BUFFALO,NY,14210-1484,S30
115704,922352699,ALLIANCE OF URBAN UNITED DEVELOPMENT AND INCLUSION CORP,,2 FLO DR,SYOSSET,NY,11791-3904,S31
115770,922460848,KOI COMMUNTIY NETWORK INC,,558 GRAND CONCOURSE BOX 87,BRONX,NY,10451-9909,S31
115785,922484969,EAST BUFFALO DEVELOPMENT CORPORATION,,3185 BAILEY AVE STE B,BUFFALO,NY,14215-1636,S31
115877,922650555,HELPING THE DIOCESE OF SUNYANI INC,,39 JEFFERSON LN,BEDFORD,NY,10506-1406,S30
115878,922651586,GO ITHACA INC,,171 E STATE ST,ITHACA,NY,14850-5566,S30
116105,923055520,STARTUP PK,% DANA JONES,PO BOX 3484,POUGHKEEPSIE,NY,12603-0484,S30
116308,923413540,PLANET FINANC,,110 E SUFFOLK AVE UNIT 24,CENTRAL ISLIP,NY,11722-6000,S31
116610,923917098,NIYAH CARES,% MANDY DAVIS,80 RIVERDALE AVE APT 3E,YONKERS,NY,10701-3617,S31
116654,923979406,CENTRAL AND SOUTH EAST BROOKLYN COMMUNITY DEVELOPMENT CORPORATION,,2918 AVENUE I,BROOKLYN,NY,11210-2935,S31
116836,931541790,SHARE25 INC,,2790 W 5TH ST APT 5D,BROOKLYN,NY,11224-4123,S30
117591,932802502,TOWN OF DEKALB REVITALIZATION CORPORATION,,PO BOX 244,DE KALB JCT,NY,13630-0244,S31
117805,933182112,ENTREPRENEURS FOR GLOBAL CHANGE INC,,1412 BROADWAY FL 21,NEW YORK,NY,10018-9243,S30
118104,933677787,DOWNTOWN ITHACA LDC II INC,,171 E STATE ST STE 136,ITHACA,NY,14850-5587,S30
118557,934391952,VIABLE LIVING INC,% JOHAN SNAGGS,46 JUNIPER HILL RD,WHITE PLAINS,NY,10607-0000,S31
118634,934518403,BUFFALO NIAGARA FILM COMMISSION INC,,1300 ELMWOOD AVE,BUFFALO,NY,14222-1004,S30
118754,934735181,ATHLETIC RENOVATIONS,% VICTOR QUIONONES,3030 SURF AVE,BROOKLYN,NY,11224-1918,S30
119321,990717306,WESTPORT-WADHAMS COMMUNITY ALLIANCE INC,,PO BOX 394,WESTPORT,NY,12993-0394,S30
119806,991787621,1DEED INC,,554 HELENDALE RD,ROCHESTER,NY,14609-3116,S30
120048,992399164,URBAN VILLAGE FOUNDATION INC,,396 WAVERLY AVE,BROOKLYN,NY,11238-1706,S31
120171,992851709,KARLEIDOSCOPE CAREER PATHWAYS INC,,7628 VILLA MARIA,SYRACUSE,NY,13212-1123,S31
120307,993328221,INSTITUTE FOR HUMAN RIGHTS INC,,396 WAVERLY AVE,BROOKLYN,NY,11238-1706,S31
